STARLINK-30333          
1 57702U 23129E   24076.23030977 -.00005220  00000+0 -37212-3 0  9996
2 57702  43.0032  91.6834 0000616 271.1132  88.9640 15.02488859 31825
STARLINK-30336          
1 57703U 23129F   24076.36655227  .00002126  00000+0  17243-3 0  9994
2 57703  43.0031  90.9850 0000909 231.1884 128.8877 15.02532889 31706
STARLINK-30346          
1 57704U 23129G   24076.22360524 -.00000314  00000+0 -81936-5 0  9994
2 57704  43.0023  91.6342 0001254 258.3058 101.7644 15.02530188 31689
STARLINK-30342          
1 57705U 23129H   24076.51270680  .00011193  00000+0  84202-3 0  9992
2 57705  43.0027  89.5016 0001079 274.4501  85.6218 15.02549682 31872
STARLINK-30327          
1 57707U 23129K   24076.42333861  .00001829  00000+0  15042-3 0  9996
2 57707  43.0037  77.8355 0001184 253.4216 106.6496 15.02534544 31860
STARLINK-30315          
1 57708U 23129L   24076.34655744  .00005673  00000+0  43439-3 0  9997
2 57708  43.0020  90.8356 0000778 285.7222  74.3535 15.02562992 31843
STARLINK-30287          
1 57709U 23129M   24076.41971137  .00002238  00000+0  18068-3 0  9997
2 57709  43.0023  90.5228 0001189 257.5332 102.5377 15.02532922 31857
STARLINK-30335          
1 57710U 23129N   24076.41638572 -.00000359  00000+0 -11546-4 0  9991
2 57710  43.0029  90.4958 0000820 245.5493 114.5264 15.02538465 31856
STARLINK-30318          
1 57711U 23129P   24076.62195184  .00001426  00000+0  12303-3 0  9997
2 57711  43.0031  89.4466 0000683 315.8298  44.2489 15.01738552 31747
STARLINK-30348          
1 57712U 23129Q   24076.20697337  .00001401  00000+0  11880-3 0  9991
2 57712  43.0025  91.5083 0001145 300.4603  59.6126 15.02528755 31824
STARLINK-30349          
1 57713U 23129R   24076.33326151  .00003961  00000+0  30807-3 0  9992
2 57713  43.0021  90.7328 0001110 263.9181  96.1534 15.02538201 31703
STARLINK-30341          
1 57714U 23129S   24076.44289840  .00006860  00000+0  52225-3 0  9997
2 57714  43.0030  89.8384 0000793 261.6042  98.4710 15.02546478 31865
STARLINK-30300          
1 57715U 23129T   24076.27676600  .00001129  00000+0  98626-4 0  9992
2 57715  43.0026  91.1709 0000758 258.0701 102.0057 15.02538173 31837
STARLINK-30281          
1 57716U 23129U   24076.45621939  .00007383  00000+0  56085-3 0  9998
2 57716  43.0004  89.9331 0000906 237.4921 122.5833 15.02545770 31728
STARLINK-30325          
1 57717U 23129V   24076.33658271  .00002642  00000+0  21055-3 0  9997
2 57717  43.0016  90.7579 0000796 281.7266  78.3488 15.02540907 31841
STARLINK-30338          
1 57718U 23129W   24076.06068791  .00004527  00000+0  34992-3 0  9998
2 57718  43.0000  92.1286 0000248 312.6238  47.4583 15.02538304 31808
STARLINK-30334          
1 57719U 23129X   24076.26344689  .00000931  00000+0  83966-4 0  9995
2 57719  43.0016  91.0680 0001127 263.4125  96.6589 15.02537813 31690
STARLINK-30375          
1 57732U 23131A   24076.62831677  .00000396  00000+0  44363-4 0  9994
2 57732  43.0022 128.2059 0001290 247.4413 112.6293 15.02538492 31312
STARLINK-30310          
1 57733U 23131B   24076.57586978 -.00001479  00000+0 -94436-4 0  9991
2 57733  43.0027 140.5894 0001076 267.4638  92.6081 15.02533900 31169
STARLINK-30365          
1 57734U 23131C   24076.34657968 -.00000465  00000+0 -19377-4 0  9990
2 57734  43.0022 142.2754 0001200 267.5742  92.4963 15.02531174 31118
STARLINK-30371          
1 57735U 23131D   24076.58918164  .00000831  00000+0  76560-4 0  9997
2 57735  43.0015 140.6900 0001114 270.0861  89.9854 15.02536060 31154
STARLINK-30352          
1 57736U 23131E   24076.51271283  .00000694  00000+0  66463-4 0  9993
2 57736  43.0019 140.9743 0001132 275.0643  85.0070 15.02539157 31146
STARLINK-30344          
1 57737U 23131F   24076.62580657  .00003334  00000+0  26170-3 0  9998
2 57737  43.0015 140.9653 0001436 257.8688 102.1994 15.02541932 31158
STARLINK-30351          
1 57738U 23131G   24076.55600351  .00000682  00000+0  65599-4 0  9997
2 57738  43.0028 141.3035 0001561 264.7175  95.3489 15.02532643 31149
STARLINK-30242          
1 57739U 23131H   24076.43912049  .00005297  00000+0  40666-3 0  9999
2 57739  43.0017 116.3953 0001205 272.6937  87.3768 15.02558157 31428
STARLINK-30331          
1 57740U 23131J   24076.54934289  .00005095  00000+0  39194-3 0  9993
2 57740  43.0006 141.2524 0001231 259.1960 100.8743 15.02538233 30879
STARLINK-30364          
1 57741U 23131K   24076.53935062  .00000245  00000+0  33208-4 0  9996
2 57741  43.0019 141.1772 0001146 255.6393 104.4323 15.02537719 31147
STARLINK-30308          
1 57742U 23131L   24076.55266724  .00002268  00000+0  18295-3 0  9996
2 57742  43.0036 141.2723 0001951 244.7874 115.2766 15.02534928 31040
STARLINK-30361          
1 57743U 23131M   24076.53601927  .00002162  00000+0  17504-3 0  9998
2 57743  43.0016 141.1515 0001111 279.4851  80.5866 15.02543946 31141
STARLINK-30363          
1 57744U 23131N   24076.49203499  .00000452  00000+0  48508-4 0  9995
2 57744  43.0030 128.9049 0001102 261.8957  98.1760 15.02534608 31283
STARLINK-30362          
1 57745U 23131P   24076.59917530  .00003536  00000+0  27675-3 0  9992
2 57745  43.0015 140.7625 0000957 273.5702  86.5030 15.02533018 31155
STARLINK-30350          
1 57746U 23131Q   24076.61841477  .00009116  00000+0  70371-3 0  9993
2 57746  43.0015 140.8933 0001204 284.8025  75.2684 15.01732663 31154
STARLINK-30307          
1 57747U 23131R   24076.66231318  .00003674  00000+0  28684-3 0  9999
2 57747  43.0008 140.3814 0001024 276.2737  83.7989 15.02544107 31163
STARLINK-30356          
1 57748U 23131S   24076.39307226  .00006892  00000+0  52456-3 0  9991
2 57748  43.0015 141.7966 0001896 283.6662  76.3969 15.02550191 31123
STARLINK-30366          
1 57749U 23131T   24076.57253783 -.00001191  00000+0 -73120-4 0  9991
2 57749  43.0033 140.5621 0001648 259.7642 100.3014 15.02525030 31152
STARLINK-30357          
1 57750U 23131U   24076.38309150 -.00000296  00000+0 -68671-5 0  9993
2 57750  42.9995 141.7193 0001253 250.6058 109.4649 15.02521188 31120
STARLINK-30370          
1 57751U 23131V   24076.55518791  .00000394  00000+0  44195-4 0  9997
2 57751  43.0005 128.5553 0000908 304.0440  56.0316 15.02532798 31298
STARLINK-30368          
1 57752U 23131W   24076.54267508  .00001206  00000+0  10431-3 0  9992
2 57752  43.0010 141.1680 0001179 278.0690  82.0018 15.02542361 31133
STARLINK-30343          
1 57753U 23131X   24076.38642044  .00001524  00000+0  12784-3 0  9993
2 57753  43.0020 141.7481 0001044 284.4395  75.6332 15.02532647 31126
STARLINK-30397          
1 57771U 23134A   24076.72166475  .00001062  00000+0  93657-4 0  9999
2 57771  42.9992 166.2881 0000688 193.0130 167.0694 15.02546936 30710
STARLINK-30354          
1 57772U 23134B   24076.60191224  .00007042  00000+0  53556-3 0  9994
2 57772  43.0011 166.2510 0001083 269.3831  90.6887 15.02558193 30701
STARLINK-30383          
1 57773U 23134C   24076.65185498  .00002910  00000+0  23033-3 0  9992
2 57773  43.0014 166.6274 0001274 270.5318  89.5378 15.02543622 30705
STARLINK-30384          
1 57774U 23134D   24076.71167700  .00007347  00000+0  55821-3 0  9995
2 57774  43.0014 166.2144 0001265 258.1982 101.8718 15.02547596 30718
STARLINK-30305          
1 57775U 23134E   24076.58205224 -.00000381  00000+0 -13143-4 0  9990
2 57775  43.0013 166.9612 0001251 249.9228 110.1480 15.02532989 30697
STARLINK-30360          
1 57776U 23134F   24076.64186598  .00008140  00000+0  61676-3 0  9992
2 57776  43.0016 166.5505 0001384 262.1963  97.8722 15.02546451 30709
STARLINK-30355          
1 57777U 23134G   24076.63520455  .00010390  00000+0  78287-3 0  9992
2 57777  43.0016 166.4790 0001557 258.7187 101.3481 15.02545248 30690
STARLINK-30385          
1 57778U 23134H   24076.65546680  .00000977  00000+0  87374-4 0  9991
2 57778  43.0018 153.8020 0001673 234.6428 125.4258 15.02531849 30690
STARLINK-30359          
1 57779U 23134J   24076.38289950  .00000756  00000+0  71040-4 0  9994
2 57779  43.0012 155.2266 0001225 271.8283  88.2419 15.02536605 30812
STARLINK-30380          
1 57780U 23134K   24076.74152471  .00002987  00000+0  23616-3 0  9996
2 57780  43.0020 165.5756 0001607 250.6622 109.4047 15.02531726 30729
STARLINK-30369          
1 57781U 23134L   24076.63187782  .00006614  00000+0  50411-3 0  9992
2 57781  43.0016 166.4666 0001224 303.4977  56.5748 15.02544826 30703
STARLINK-30376          
1 57782U 23134M   24076.61192215  .00016051  00000+0  12004-2 0  9999
2 57782  43.0016 166.3287 0001286 257.0326 103.0373 15.02540075 30706
STARLINK-30389          
1 57783U 23134N   24076.62522518  .00001102  00000+0  96638-4 0  9992
2 57783  42.9998 166.4260 0000495 202.8155 157.2666 15.02531718 30705
STARLINK-30388          
1 57784U 23134P   24076.62189252  .00001958  00000+0  16000-3 0  9990
2 57784  43.0014 166.3985 0001106 200.2094 159.8705 15.02527921 30707
STARLINK-30381          
1 57785U 23134Q   24076.73151123 -.00005827  00000+0 -41703-3 0  9998
2 57785  43.0012 165.4106 0001372 246.5540 113.5158 15.02500770 30729
STARLINK-30382          
1 57786U 23134R   24076.68504132  .00020766  00000+0  15474-2 0  9997
2 57786  43.0015 166.0160 0001247 267.5939  92.4761 15.02544977 30717
STARLINK-30378          
1 57787U 23134S   24076.59525354  .00004540  00000+0  35092-3 0  9998
2 57787  43.0019 166.2007 0001255 270.3751  89.6947 15.02537756 30707
STARLINK-30387          
1 57788U 23134T   24076.38611656 -.00000619  00000+0 -30740-4 0  9998
2 57788  43.0026 154.4010 0001070 233.3027 126.7717 15.02532044 30825
STARLINK-30372          
1 57789U 23134U   24076.68170378  .00005866  00000+0  44891-3 0  9991
2 57789  42.9993 165.9797 0000771 246.8689 113.2072 15.02539875 30718
STARLINK-30373          
1 57790U 23134V   24076.62854567  .00002688  00000+0  21399-3 0  9993
2 57790  43.0002 166.4296 0001116 267.2317  92.8397 15.02538621 30701
